IRIDIUM 63              
1 25286U 98021B   25364.52615110  .00000689  00000+0  22724-3 0  9996
2 25286  86.3981 359.7488 0002235  83.5441 276.6011 14.36751918452033
IRIDIUM 69              
1 25319U 98026A   25364.55833382  .00000716  00000+0  21574-3 0  9997
2 25319  86.3968  12.4034 0004605  93.2239 266.9488 14.41234513451347
IRIDIUM 71              
1 25320U 98026B   25364.54389274  .00000535  00000+0  15929-3 0  9990
2 25320  86.3970   7.0807 0003548 124.1009 236.0528 14.41330326451874
IRIDIUM 73              
1 25344U 98032C   25364.35210996  .00001177  00000+0  28646-3 0  9999
2 25344  86.4420 323.5035 0002909  78.7193 281.4340 14.52017394459028
IRIDIUM 82              
1 25467U 98051A   25364.43229534  .00060517  00000+0  10712-2 0  9990
2 25467  86.3599  12.1897 0056331 263.3408  96.1437 15.48262449454130
